satname,norad_id,inclination_deg,eccentricity,mean_motion_rev_per_day,perigee_km,apogee_km,l1,l2
STARLINK-1008,44714,53.0556,0.0001263,15.06394678,546.3531955668168,548.102542732764,1 44714U 19074B   26006.00714032  .00013940  00000+0  95299-3 0  9995,2 44714  53.0556 108.0144 0001263  81.9473 278.1660 15.06394678339305
STARLINK-1012,44718,53.0558,0.0001254,15.06395747,546.3561524576635,548.0930331451382,1 44718U 19074F   26006.25039483  .00004022  00000+0  28879-3 0  9997,2 44718  53.0558 106.9197 0001254  94.5209 265.5923 15.06395747339336
STARLINK-1017,44723,53.0518,0.00025,15.19533556,505.52795638177577,508.9706495332548,1 44723U 19074L   26006.27463668  .00031155  00000+0  14566-2 0  9995,2 44723  53.0518  98.3236 0002500 137.9429 222.1758 15.19533556339462
STARLINK-1019,44724,53.0492,0.0006611,15.62228272,376.7533800631563,385.6906045227661,1 44724U 19074M   26006.33334491  .00089688  00000+0  99381-3 0  9997,2 44724  53.0492  85.8304 0006611 329.4699 229.9797 15.62228272  5838
STARLINK-1020,44725,53.0554,0.0001247,15.06390913,546.3758139863803,548.103002862641,1 44725U 19074N   26005.65510953 -.00000404  00000+0 -82296-5 0  9991,2 44725  53.0554 129.5938 0001247  95.6119 264.5013 15.06390913338965
STARLINK-1031,44736,53.045,0.0002385,15.66318795,367.83928654855845,371.05788487294376,1 44736U 19074Z   26006.18244333  .00121161  00000+0  11370-2 0  9992,2 44736  53.0450  72.7321 0002385  18.9118 341.1985 15.66318795339828
STARLINK-1036,44741,53.0538,0.0001429,15.19497709,506.3736557196362,508.3415300742845,1 44741U 19074AE  26006.33334491  .01287586  00000+0  55366-1 0  9997,2 44741  53.0538 126.1611 0001429  85.3639  32.9890 15.19497709  5743
STARLINK-1039,44744,53.0485,0.0002152,15.16565475,514.7463328408703,517.713668397937,1 44744U 19074AH  26005.64675998  .00017964  00000+0  92289-3 0  9990,2 44744  53.0485 143.6811 0002152  66.9863 293.1357 15.16565475338775
STARLINK-1042,44747,53.0459,0.0002598,15.46503391,425.1962688844287,428.73219948571204,1 44747U 19074AL  26006.29122761  .00023117  00000+0  46549-3 0  9995,2 44747  53.0459  33.4080 0002598  11.2900 348.8164 15.46503391340401
STARLINK-1043,44748,53.0549,0.0001646,15.47328558,423.42492574742573,425.66436854566564,1 44748U 19074AM  26005.63271606  .00036082  00000+0  70038-3 0  9991,2 44748  53.0549 137.4525 0001646 229.4780 130.6084 15.47328558338869
STARLINK-1046,44751,53.058,0.0001097,15.27566977,482.3354154711169,483.840768256272,1 44751U 19074AQ  26006.33334491  .01085645  00000+0  36803-1 0  9995,2 44751  53.0580 145.6182 0001097  93.6483  14.7661 15.27566977  5691
STARLINK-1047,44752,53.0713,0.0003599,15.31021072,470.29895263817707,475.2302316041869,1 44752U 19074AR  26006.31684327  .00010988  00000+0  37301-3 0  9993,2 44752  53.0713  77.0365 0003599  40.4618 319.6649 15.31021072339780
STARLINK-1048,44753,53.0546,0.0001267,15.25337085,488.90325451221634,490.64358301233096,1 44753U 19074AS  26006.33334491  .00056872  00000+0  22231-2 0  9997,2 44753  53.0546 105.9349 0001267  85.5084  80.1277 15.25337085  5699
STARLINK-1053,44758,53.0375,0.000293,15.71694314,352.08184631605036,356.0269104637873,1 44758U 19074AX  26006.30789583  .00092050  00000+0  69595-3 0  9998,2 44758  53.0375  36.5729 0002930  29.4635 330.6547 15.71694314340341
STARLINK-1060,44765,53.0435,0.0004039,15.86097024,310.5349182652608,315.9402106384259,1 44765U 19074BE  26006.33334491  .00234851  00000+0  90704-3 0  9996,2 44765  53.0435  79.0381 0004039 302.5455  52.9591 15.86097024  5992
STARLINK-1063,44768,53.0546,0.0001296,15.0640233,546.3068925854423,548.1019410806839,1 44768U 19074BH  26006.25776430  .00000978  00000+0  84566-4 0  9994,2 44768  53.0546 146.8880 0001296  93.6698 266.4439 15.06402330338796
STARLINK-1067,44771,53.0554,9.77e-05,15.42984237,436.6415710155843,437.97330885914835,1 44771U 19074BL  26006.33977236  .00035892  00000+0  80775-3 0  9994,2 44771  53.0554 143.2945 0000977  54.3482 305.7614 15.42984237338841
STARLINK-1068,44772,53.0531,0.0004793,15.43362565,432.92749543383525,439.4597127509187,1 44772U 19074BM  26006.33334491  .00109749  00000+0  23961-2 0  9991,2 44772  53.0531 121.2271 0004793 349.6400  17.1153 15.43362565  5753
STARLINK-1112,44925,53.0448,0.0007431,15.72836226,345.79523972017887,355.7957792157504,1 44925U 20001M   26006.33334491  .00238061  00000+0  16766-2 0  9998,2 44925  53.0448 197.6709 0007431 125.8517 353.3227 15.72836226  5858
STARLINK-1114,44927,53.0539,0.0001438,15.24312522,491.86252575648814,493.83862178270556,1 44927U 20001P   26006.33334491  .01942828  00000+0  70949-1 0  9996,2 44927  53.0539 265.7939 0001438  64.9542 276.1170 15.24312522  5747
STARLINK-1123,44930,53.0531,0.0001299,15.06367195,546.4124865247331,548.2117182015263,1 44930U 20001S   26006.15826209 -.00008787  00000+0 -57227-3 0  9997,2 44930  53.0531 267.3339 0001299  85.5745 274.5392 15.06367195330424
STARLINK-1144,44933,53.0361,0.0002737,15.84596544,315.6284265047125,319.29359685630607,1 44933U 20001V   26006.33334491  .00340136  00000+0  13941-2 0  9996,2 44933  53.0361 170.2799 0002737 292.2779 178.4216 15.84596544  5943
STARLINK-1094,44941,53.0516,0.0001104,15.06412941,546.407341818951,547.9364500231704,1 44941U 20001AD  26005.97209835  .00005666  00000+0  39885-3 0  9999,2 44941  53.0516 248.1705 0001104  95.4236 264.6879 15.06412941330670
STARLINK-1122,44949,53.0547,0.0001231,15.06401056,546.355811443188,548.0608314613291,1 44949U 20001AM  26005.92787687  .00002421  00000+0  18138-3 0  9992,2 44949  53.0547 248.3659 0001231  76.6965 283.4162 15.06401056330661
STARLINK-1080,44961,53.0531,0.0001149,15.38204306,450.63463569300166,452.20406774262756,1 44961U 20001AZ  26006.33334491  .00009456  00000+0  25757-3 0  9993,2 44961  53.0531 224.1280 0001149 102.4484 111.3755 15.38204306  5695
STARLINK-1090,44968,53.0545,0.000126,15.064178,546.2844169946238,548.0295910836421,1 44968U 20001BG  26005.99604825  .00003675  00000+0  26536-3 0  9995,2 44968  53.0545 228.0602 0001260  93.1109 267.0024 15.06417800330961
STARLINK-1132,45044,53.0794,0.0001381,15.1243325,527.8281662744839,529.7358573055399,1 45044U 20006A   26006.33334491  .00946068  00000+0  50232-1 0  9994,2 45044  53.0794 186.4809 0001381  96.8876 191.1833 15.12433250  5793
STARLINK-1131,45047,53.0545,0.000157,15.06394073,546.1424408236198,548.3170059747663,1 45047U 20006D   26006.26336005  .00004363  00000+0  31169-3 0  9995,2 45047  53.0545 207.4021 0001570  90.7894 269.3275 15.06394073327048
STARLINK-1134,45048,53.037,0.0004339,15.35302318,457.05559703990457,462.98975200545556,1 45048U 20006E   26006.18135754  .00092455  00000+0  26365-2 0  9995,2 45048  53.0370 173.7289 0004339  74.3129 285.8351 15.35302318327514
STARLINK-1156,45054,53.0559,0.0001182,15.06421063,546.3284350598597,547.9655721983172,1 45054U 20006L   26005.96839857  .00003804  00000+0  27397-3 0  9999,2 45054  53.0559 208.1857 0001182  89.4504 270.6621 15.06421063327004
STARLINK-1159,45057,53.0505,0.0005564,15.61915567,378.3627294262651,385.8855480214379,1 45057U 20006P   26006.33334491  .00193077  00000+0  21320-2 0  9999,2 45057  53.0505 183.8701 0005564 158.3112 307.5048 15.61915567  5895
STARLINK-1166,45060,53.054,0.0001209,15.11309801,531.3690177698227,533.039938339216,1 45060U 20006S   26006.33334491  .00042513  00000+0  24977-2 0  9992,2 45060  53.0540 206.4919 0001209  69.8861 358.6432 15.11309801  5808
STARLINK-1169,45061,53.0545,0.0001696,15.06398229,546.0424457675317,548.3915258395164,1 45061U 20006T   26006.26698094  .00001094  00000+0  92327-4 0  9992,2 45061  53.0545 206.8468 0001696  90.5850 269.5334 15.06398229327057
STARLINK-1171,45062,53.0539,0.0014087,15.44246463,423.99740759107226,443.1887759516303,1 45062U 20006U   26006.21350287  .00126924  00000+0  26742-2 0  9993,2 45062  53.0539 189.7906 0014087 140.0486 220.1558 15.44246463327292
STARLINK-1133,45064,53.0652,1.29e-05,15.10046506,535.9688453154849,536.1472315474766,1 45064U 20006W   26006.33334491  .00119357  00000+0  71510-2 0  9992,2 45064  53.0652 186.5310 0000129  97.3750 282.4567 15.10046506  5792
STARLINK-1167,45071,53.077,0.0001719,15.12433331,527.5944658492708,529.969064520742,1 45071U 20006AD  26006.33334491  .00112895  00000+0  63384-2 0  9990,2 45071  53.0770 186.4872 0001719 123.3763 140.6536 15.12433331  5804
STARLINK-1168,45072,53.0715,0.0001953,15.11230479,531.0966473225544,533.7959211533771,1 45072U 20006AE  26006.33334491  .00116254  00000+0  67449-2 0  9990,2 45072  53.0715 186.5152 0001953 107.1417 121.1497 15.11230479  5843
STARLINK-1172,45074,53.0562,0.0002193,15.07010761,543.8219770973565,546.858614239236,1 45074U 20006AG  26006.03963973  .00077977  00000+0  51112-2 0  9990,2 45074  53.0562 187.8614 0002193  56.7254 303.3945 15.07010761327290
STARLINK-1153,45080,53.079,0.0001404,15.1220412,528.5098582341661,530.4495170000491,1 45080U 20006AN  26006.33334491  .00940796  00000+0  50290-1 0  9990,2 45080  53.0790 186.4832 0001404  94.9264 210.5558 15.12204120  5793
STARLINK-1151,45081,53.0533,0.000203,15.46065975,426.86601924446586,429.62941143889475,1 45081U 20006AP  26006.33334491  .00173478  00000+0  34224-2 0  9996,2 45081  53.0533 180.6624 0002030 227.4170 295.0068 15.46065975  5816
STARLINK-1185,45087,53.0563,0.0001279,15.06407006,546.3043363062934,548.0758349748003,1 45087U 20006AV  26006.17851223 -.00000031  00000+0  16811-4 0  9990,2 45087  53.0563 167.2443 0001279  90.2283 269.8853 15.06407006327606
STARLINK-1183,45088,53.0558,0.0001267,15.06387712,546.3717727105231,548.1266655784548,1 45088U 20006AW  26006.13427781 -.00001416  00000+0 -76211-4 0  9994,2 45088  53.0558 167.4403 0001267  87.1465 272.9669 15.06387712327592
STARLINK-1152,45096,53.043,0.000263,15.31132558,470.63033302343865,474.23373233462735,1 45096U 20006BE  26005.68524335  .00103224  00000+0  33506-2 0  9991,2 45096  53.0430 141.9120 0002630  76.5157 283.6136 15.31132558327916
